SENTINEL-6              
1 46984U 20086A   25111.86582892 -.00000031  00000+0  12901-3 0  9995
2 46984  66.0405 290.1430 0007868 271.2247  88.7867 12.80929772206365
GAOFEN-12 02            
1 48079U 21026A   25112.21670207  .00001045  00000+0  14398-3 0  9992
2 48079  97.9735 107.5553 0003263 124.6913 235.4606 14.80339623219474
PLEIADES NEO 3          
1 48268U 21034A   25112.18821009  .00002372  00000+0  30796-3 0  9999
2 48268  97.8933 187.9943 0000997 115.0171 245.1146 14.81671490215317
PLEIADES NEO 4          
1 49070U 21073E   25112.22196952  .00002631  00000+0  34075-3 0  9993
2 49070  97.8937 188.0227 0001210 124.9671 235.1656 14.81675211199033
LANDSAT 9               
1 49260U 21088A   25112.18393240  .00000829  00000+0  19400-3 0  9996
2 49260  98.1915 183.5007 0001089  90.9206 269.2117 14.57132015189683
CSG-2                   
1 51444U 22008A   25112.15702027  .00000926  00000+0  12285-3 0  9992
2 51444  97.8879 296.8705 0001509  86.7705 273.3681 14.82148040174221
GAOFEN-12 03            
1 52912U 22069A   25112.21694588  .00002937  00000+0  38493-3 0  9992
2 52912  97.8766   4.3818 0000930 244.2287 115.8830 14.81096933152344
SWOT                    
1 54754U 22173A   25112.19423307  .00000147  00000+0  10148-3 0  9998
2 54754  77.6099 243.5998 0000600 307.8183  52.2914 14.00170797120238
GAOFEN-12 04            
1 57654U 23123A   25112.18133764  .00003000  00000+0  39346-3 0  9992
2 57654  97.9111  31.3826 0003165  71.9859 288.1698 14.81047349 90354
PARS 1                  
1 59065U 24039Q   25112.17209371  .00015277  00000+0  44375-3 0  9991
2 59065  97.4358  79.6895 0011507 179.7129 180.4123 15.35511207 63836
RESURS-P 4              
1 59371U 24061A   25112.16456482  .00007198  00000+0  22374-3 0  9990
2 59371  97.2264  63.6586 0002435  61.7703 298.3785 15.33627227 59283
LEGION 1                
1 59625U 24081A   25112.22185934  .00009139  00000+0  46887-3 0  9994
2 59625  97.5378 188.3938 0004342 227.5136 132.5730 15.16753985 53725
LEGION 2                
1 59626U 24081B   25111.92312192  .00008360  00000+0  42933-3 0  9992
2 59626  97.5380 188.1795 0003205 250.0491 110.0397 15.16750416 53681
ALOS-4 (DAICHI-4)       
1 60182U 24123A   25112.21164478  .00004123  00000+0  55860-3 0  9999
2 60182  97.9199 210.4218 0001628 101.3783 258.7611 14.79479711 43637
