[
  {
    "OBJECT_NAME": "SENTINEL-6",
    "OBJECT_ID": "2020-086A",
    "EPOCH": "2025-04-21T20:46:47.618688",
    "MEAN_MOTION": 12.80929772,
    "ECCENTRICITY": 0.0007868,
    "INCLINATION": 66.0405,
    "RA_OF_ASC_NODE": 290.143,
    "ARG_OF_PERICENTER": 271.2247,
    "MEAN_ANOMALY": 88.7867,
    "EPHEMERIS_TYPE": 0,
    "CLASSIFICATION_TYPE": "U",
    "NORAD_CAT_ID": 46984,
    "ELEMENT_SET_NO": 999,
    "REV_AT_EPOCH": 20636,
    "BSTAR": 0.00012901,
    "MEAN_MOTION_DOT": -3.1e-7,
    "MEAN_MOTION_DDOT": 0
  },
  {
    "OBJECT_NAME": "GAOFEN-12 02",
    "OBJECT_ID": "2021-026A",
    "EPOCH": "2025-04-22T05:12:03.058848",
    "MEAN_MOTION": 14.80339623,
    "ECCENTRICITY": 0.0003263,
    "INCLINATION": 97.9735,
    "RA_OF_ASC_NODE": 107.5553,
    "ARG_OF_PERICENTER": 124.6913,
    "MEAN_ANOMALY": 235.4606,
    "EPHEMERIS_TYPE": 0,
    "CLASSIFICATION_TYPE": "U",
    "NORAD_CAT_ID": 48079,
    "ELEMENT_SET_NO": 999,
    "REV_AT_EPOCH": 21947,
    "BSTAR": 0.00014398,
    "MEAN_MOTION_DOT": 0.00001045,
    "MEAN_MOTION_DDOT": 0
  },
  {
    "OBJECT_NAME": "PLEIADES NEO 3",
    "OBJECT_ID": "2021-034A",
    "EPOCH": "2025-04-22T04:31:01.351776",
    "MEAN_MOTION": 14.8167149,
    "ECCENTRICITY": 0.0000997,
    "INCLINATION": 97.8933,
    "RA_OF_ASC_NODE": 187.9943,
    "ARG_OF_PERICENTER": 115.0171,
    "MEAN_ANOMALY": 245.1146,
    "EPHEMERIS_TYPE": 0,
    "CLASSIFICATION_TYPE": "U",
    "NORAD_CAT_ID": 48268,
    "ELEMENT_SET_NO": 999,
    "REV_AT_EPOCH": 21531,
    "BSTAR": 0.00030796,
    "MEAN_MOTION_DOT": 0.00002372,
    "MEAN_MOTION_DDOT": 0
  },
  {
    "OBJECT_NAME": "PLEIADES NEO 4",
    "OBJECT_ID": "2021-073E",
    "EPOCH": "2025-04-22T05:19:38.166528",
    "MEAN_MOTION": 14.81675211,
    "ECCENTRICITY": 0.000121,
    "INCLINATION": 97.8937,
    "RA_OF_ASC_NODE": 188.0227,
    "ARG_OF_PERICENTER": 124.9671,
    "MEAN_ANOMALY": 235.1656,
    "EPHEMERIS_TYPE": 0,
    "CLASSIFICATION_TYPE": "U",
    "NORAD_CAT_ID": 49070,
    "ELEMENT_SET_NO": 999,
    "REV_AT_EPOCH": 19903,
    "BSTAR": 0.00034075,
    "MEAN_MOTION_DOT": 0.00002631,
    "MEAN_MOTION_DDOT": 0
  },
  {
    "OBJECT_NAME": "LANDSAT 9",
    "OBJECT_ID": "2021-088A",
    "EPOCH": "2025-04-22T04:24:51.759360",
    "MEAN_MOTION": 14.57132015,
    "ECCENTRICITY": 0.0001089,
    "INCLINATION": 98.1915,
    "RA_OF_ASC_NODE": 183.5007,
    "ARG_OF_PERICENTER": 90.9206,
    "MEAN_ANOMALY": 269.2117,
    "EPHEMERIS_TYPE": 0,
    "CLASSIFICATION_TYPE": "U",
    "NORAD_CAT_ID": 49260,
    "ELEMENT_SET_NO": 999,
    "REV_AT_EPOCH": 18968,
    "BSTAR": 0.000194,
    "MEAN_MOTION_DOT": 0.00000829,
    "MEAN_MOTION_DDOT": 0
  },
  {
    "OBJECT_NAME": "CSG-2",
    "OBJECT_ID": "2022-008A",
    "EPOCH": "2025-04-22T03:46:06.551328",
    "MEAN_MOTION": 14.8214804,
    "ECCENTRICITY": 0.0001509,
    "INCLINATION": 97.8879,
    "RA_OF_ASC_NODE": 296.8705,
    "ARG_OF_PERICENTER": 86.7705,
    "MEAN_ANOMALY": 273.3681,
    "EPHEMERIS_TYPE": 0,
    "CLASSIFICATION_TYPE": "U",
    "NORAD_CAT_ID": 51444,
    "ELEMENT_SET_NO": 999,
    "REV_AT_EPOCH": 17422,
    "BSTAR": 0.00012285,
    "MEAN_MOTION_DOT": 0.00000926,
    "MEAN_MOTION_DDOT": 0
  },
  {
    "OBJECT_NAME": "GAOFEN-12 03",
    "OBJECT_ID": "2022-069A",
    "EPOCH": "2025-04-22T05:12:24.124032",
    "MEAN_MOTION": 14.81096933,
    "ECCENTRICITY": 0.000093,
    "INCLINATION": 97.8766,
    "RA_OF_ASC_NODE": 4.3818,
    "ARG_OF_PERICENTER": 244.2287,
    "MEAN_ANOMALY": 115.883,
    "EPHEMERIS_TYPE": 0,
    "CLASSIFICATION_TYPE": "U",
    "NORAD_CAT_ID": 52912,
    "ELEMENT_SET_NO": 999,
    "REV_AT_EPOCH": 15234,
    "BSTAR": 0.00038493,
    "MEAN_MOTION_DOT": 0.00002937,
    "MEAN_MOTION_DDOT": 0
  },
  {
    "OBJECT_NAME": "SWOT",
    "OBJECT_ID": "2022-173A",
    "EPOCH": "2025-04-22T04:39:41.737248",
    "MEAN_MOTION": 14.00170797,
    "ECCENTRICITY": 0.00006,
    "INCLINATION": 77.6099,
    "RA_OF_ASC_NODE": 243.5998,
    "ARG_OF_PERICENTER": 307.8183,
    "MEAN_ANOMALY": 52.2914,
    "EPHEMERIS_TYPE": 0,
    "CLASSIFICATION_TYPE": "U",
    "NORAD_CAT_ID": 54754,
    "ELEMENT_SET_NO": 999,
    "REV_AT_EPOCH": 12023,
    "BSTAR": 0.00010148,
    "MEAN_MOTION_DOT": 0.00000147,
    "MEAN_MOTION_DDOT": 0
  },
  {
    "OBJECT_NAME": "GAOFEN-12 04",
    "OBJECT_ID": "2023-123A",
    "EPOCH": "2025-04-22T04:21:07.572096",
    "MEAN_MOTION": 14.81047349,
    "ECCENTRICITY": 0.0003165,
    "INCLINATION": 97.9111,
    "RA_OF_ASC_NODE": 31.3826,
    "ARG_OF_PERICENTER": 71.9859,
    "MEAN_ANOMALY": 288.1698,
    "EPHEMERIS_TYPE": 0,
    "CLASSIFICATION_TYPE": "U",
    "NORAD_CAT_ID": 57654,
    "ELEMENT_SET_NO": 999,
    "REV_AT_EPOCH": 9035,
    "BSTAR": 0.00039346,
    "MEAN_MOTION_DOT": 0.00003,
    "MEAN_MOTION_DDOT": 0
  },
  {
    "OBJECT_NAME": "PARS 1",
    "OBJECT_ID": "2024-039Q",
    "EPOCH": "2025-04-22T04:07:48.896544",
    "MEAN_MOTION": 15.35511207,
    "ECCENTRICITY": 0.0011507,
    "INCLINATION": 97.4358,
    "RA_OF_ASC_NODE": 79.6895,
    "ARG_OF_PERICENTER": 179.7129,
    "MEAN_ANOMALY": 180.4123,
    "EPHEMERIS_TYPE": 0,
    "CLASSIFICATION_TYPE": "U",
    "NORAD_CAT_ID": 59065,
    "ELEMENT_SET_NO": 999,
    "REV_AT_EPOCH": 6383,
    "BSTAR": 0.00044375,
    "MEAN_MOTION_DOT": 0.00015277,
    "MEAN_MOTION_DDOT": 0
  },
  {
    "OBJECT_NAME": "RESURS-P 4",
    "OBJECT_ID": "2024-061A",
    "EPOCH": "2025-04-22T03:56:58.400448",
    "MEAN_MOTION": 15.33627227,
    "ECCENTRICITY": 0.0002435,
    "INCLINATION": 97.2264,
    "RA_OF_ASC_NODE": 63.6586,
    "ARG_OF_PERICENTER": 61.7703,
    "MEAN_ANOMALY": 298.3785,
    "EPHEMERIS_TYPE": 0,
    "CLASSIFICATION_TYPE": "U",
    "NORAD_CAT_ID": 59371,
    "ELEMENT_SET_NO": 999,
    "REV_AT_EPOCH": 5928,
    "BSTAR": 0.00022374,
    "MEAN_MOTION_DOT": 0.00007198,
    "MEAN_MOTION_DDOT": 0
  },
  {
    "OBJECT_NAME": "LEGION 1",
    "OBJECT_ID": "2024-081A",
    "EPOCH": "2025-04-22T05:19:28.646976",
    "MEAN_MOTION": 15.16753985,
    "ECCENTRICITY": 0.0004342,
    "INCLINATION": 97.5378,
    "RA_OF_ASC_NODE": 188.3938,
    "ARG_OF_PERICENTER": 227.5136,
    "MEAN_ANOMALY": 132.573,
    "EPHEMERIS_TYPE": 0,
    "CLASSIFICATION_TYPE": "U",
    "NORAD_CAT_ID": 59625,
    "ELEMENT_SET_NO": 999,
    "REV_AT_EPOCH": 5372,
    "BSTAR": 0.00046887,
    "MEAN_MOTION_DOT": 0.00009139,
    "MEAN_MOTION_DDOT": 0
  },
  {
    "OBJECT_NAME": "LEGION 2",
    "OBJECT_ID": "2024-081B",
    "EPOCH": "2025-04-21T22:09:17.733888",
    "MEAN_MOTION": 15.16750416,
    "ECCENTRICITY": 0.0003205,
    "INCLINATION": 97.538,
    "RA_OF_ASC_NODE": 188.1795,
    "ARG_OF_PERICENTER": 250.0491,
    "MEAN_ANOMALY": 110.0397,
    "EPHEMERIS_TYPE": 0,
    "CLASSIFICATION_TYPE": "U",
    "NORAD_CAT_ID": 59626,
    "ELEMENT_SET_NO": 999,
    "REV_AT_EPOCH": 5368,
    "BSTAR": 0.00042933,
    "MEAN_MOTION_DOT": 0.0000836,
    "MEAN_MOTION_DDOT": 0
  },
  {
    "OBJECT_NAME": "ALOS-4 (DAICHI-4)",
    "OBJECT_ID": "2024-123A",
    "EPOCH": "2025-04-22T05:04:46.108992",
    "MEAN_MOTION": 14.79479711,
    "ECCENTRICITY": 0.0001628,
    "INCLINATION": 97.9199,
    "RA_OF_ASC_NODE": 210.4218,
    "ARG_OF_PERICENTER": 101.3783,
    "MEAN_ANOMALY": 258.7611,
    "EPHEMERIS_TYPE": 0,
    "CLASSIFICATION_TYPE": "U",
    "NORAD_CAT_ID": 60182,
    "ELEMENT_SET_NO": 999,
    "REV_AT_EPOCH": 4363,
    "BSTAR": 0.0005586,
    "MEAN_MOTION_DOT": 0.00004123,
    "MEAN_MOTION_DDOT": 0
  }
]